[{"OBJECT_NAME":"STARLINK-31368","OBJECT_ID":"2024-031F","EPOCH":"2025-12-31T00:32:13.037568","MEAN_MOTION":15.30189774,"ECCENTRICITY":0.00011792,"INCLINATION":53.1602,"RA_OF_ASC_NODE":255.3924,"ARG_OF_PERICENTER":92.4617,"MEAN_ANOMALY":267.6519,"EPHEMERIS_TYPE":0,"CLASSIFICATION_TYPE":"U","NORAD_CAT_ID":58970,"ELEMENT_SET_NO":999,"REV_AT_EPOCH":10602,"BSTAR":-7.358601e-6,"MEAN_MOTION_DOT":-5.77e-6,"MEAN_MOTION_DDOT":0},{"OBJECT_NAME":"STARLINK-31333","OBJECT_ID":"2024-031G","EPOCH":"2025-12-31T01:39:47.601216","MEAN_MOTION":15.30198225,"ECCENTRICITY":0.00013516,"INCLINATION":53.1592,"RA_OF_ASC_NODE":242.8919,"ARG_OF_PERICENTER":89.3095,"MEAN_ANOMALY":270.8061,"EPHEMERIS_TYPE":0,"CLASSIFICATION_TYPE":"U","NORAD_CAT_ID":58971,"ELEMENT_SET_NO":999,"REV_AT_EPOCH":10620,"BSTAR":2.1017962e-5,"MEAN_MOTION_DOT":2.63e-6,"MEAN_MOTION_DDOT":0},{"OBJECT_NAME":"STARLINK-31351","OBJECT_ID":"2024-031H","EPOCH":"2025-12-31T02:32:06.444096","MEAN_MOTION":15.30201197,"ECCENTRICITY":0.00014803,"INCLINATION":53.1589,"RA_OF_ASC_NODE":255.1881,"ARG_OF_PERICENTER":87.3634,"MEAN_ANOMALY":272.7537,"EPHEMERIS_TYPE":0,"CLASSIFICATION_TYPE":"U","NORAD_CAT_ID":58972,"ELEMENT_SET_NO":999,"REV_AT_EPOCH":10602,"BSTAR":-7.8088866e-5,"MEAN_MOTION_DOT":-2.671e-5,"MEAN_MOTION_DDOT":0},{"OBJECT_NAME":"STARLINK-31365","OBJECT_ID":"2024-031J","EPOCH":"2025-12-31T02:41:12.874848","MEAN_MOTION":15.30190377,"ECCENTRICITY":0.00014457,"INCLINATION":53.1593,"RA_OF_ASC_NODE":255.2285,"ARG_OF_PERICENTER":79.4688,"MEAN_ANOMALY":280.6476,"EPHEMERIS_TYPE":0,"CLASSIFICATION_TYPE":"U","NORAD_CAT_ID":58973,"ELEMENT_SET_NO":999,"REV_AT_EPOCH":10603,"BSTAR":8.2697093e-5,"MEAN_MOTION_DOT":2.09e-5,"MEAN_MOTION_DDOT":0},{"OBJECT_NAME":"STARLINK-31361","OBJECT_ID":"2024-031K","EPOCH":"2025-12-31T02:36:38.864160","MEAN_MOTION":15.30199761,"ECCENTRICITY":0.00010893,"INCLINATION":53.1589,"RA_OF_ASC_NODE":255.2088,"ARG_OF_PERICENTER":91.6594,"MEAN_ANOMALY":268.4531,"EPHEMERIS_TYPE":0,"CLASSIFICATION_TYPE":"U","NORAD_CAT_ID":58974,"ELEMENT_SET_NO":999,"REV_AT_EPOCH":10603,"BSTAR":5.4512408e-5,"MEAN_MOTION_DOT":1.256e-5,"MEAN_MOTION_DDOT":0},{"OBJECT_NAME":"STARLINK-31369","OBJECT_ID":"2024-031L","EPOCH":"2025-12-31T02:45:46.536480","MEAN_MOTION":15.30189029,"ECCENTRICITY":0.00013596,"INCLINATION":53.1589,"RA_OF_ASC_NODE":255.2472,"ARG_OF_PERICENTER":75.2059,"MEAN_ANOMALY":284.9092,"EPHEMERIS_TYPE":0,"CLASSIFICATION_TYPE":"U","NORAD_CAT_ID":58975,"ELEMENT_SET_NO":999,"REV_AT_EPOCH":10601,"BSTAR":6.1725367e-5,"MEAN_MOTION_DOT":1.469e-5,"MEAN_MOTION_DDOT":0},{"OBJECT_NAME":"STARLINK-31324","OBJECT_ID":"2024-031M","EPOCH":"2025-12-30T23:42:13.251168","MEAN_MOTION":15.30203805,"ECCENTRICITY":0.00010251,"INCLINATION":53.1601,"RA_OF_ASC_NODE":255.8738,"ARG_OF_PERICENTER":82.3208,"MEAN_ANOMALY":277.791,"EPHEMERIS_TYPE":0,"CLASSIFICATION_TYPE":"U","NORAD_CAT_ID":58976,"ELEMENT_SET_NO":999,"REV_AT_EPOCH":10599,"BSTAR":-2.9401918e-5,"MEAN_MOTION_DOT":-1.23e-5,"MEAN_MOTION_DDOT":0},{"OBJECT_NAME":"STARLINK-31358","OBJECT_ID":"2024-031N","EPOCH":"2025-12-31T02:03:13.162464","MEAN_MOTION":15.30194577,"ECCENTRICITY":0.00012722,"INCLINATION":53.1604,"RA_OF_ASC_NODE":255.0549,"ARG_OF_PERICENTER":94.1289,"MEAN_ANOMALY":265.9857,"EPHEMERIS_TYPE":0,"CLASSIFICATION_TYPE":"U","NORAD_CAT_ID":58977,"ELEMENT_SET_NO":999,"REV_AT_EPOCH":10601,"BSTAR":5.4390914e-5,"MEAN_MOTION_DOT":1.252e-5,"MEAN_MOTION_DDOT":0},{"OBJECT_NAME":"STARLINK-31355","OBJECT_ID":"2024-031P","EPOCH":"2025-12-30T20:38:40.714080","MEAN_MOTION":15.30205669,"ECCENTRICITY":0.0001323,"INCLINATION":53.1584,"RA_OF_ASC_NODE":256.5016,"ARG_OF_PERICENTER":84.4153,"MEAN_ANOMALY":275.6998,"EPHEMERIS_TYPE":0,"CLASSIFICATION_TYPE":"U","NORAD_CAT_ID":58978,"ELEMENT_SET_NO":999,"REV_AT_EPOCH":10597,"BSTAR":0.00017372,"MEAN_MOTION_DOT":4.79e-5,"MEAN_MOTION_DDOT":0},{"OBJECT_NAME":"STARLINK-31380","OBJECT_ID":"2024-031Q","EPOCH":"2025-12-31T02:59:26.880288","MEAN_MOTION":15.30196232,"ECCENTRICITY":0.00010288,"INCLINATION":53.1578,"RA_OF_ASC_NODE":255.3047,"ARG_OF_PERICENTER":86.6541,"MEAN_ANOMALY":273.4577,"EPHEMERIS_TYPE":0,"CLASSIFICATION_TYPE":"U","NORAD_CAT_ID":58979,"ELEMENT_SET_NO":999,"REV_AT_EPOCH":10601,"BSTAR":0.00013694274,"MEAN_MOTION_DOT":3.698e-5,"MEAN_MOTION_DDOT":0},{"OBJECT_NAME":"STARLINK-31353","OBJECT_ID":"2024-031R","EPOCH":"2025-12-31T02:56:24.498528","MEAN_MOTION":15.30197108,"ECCENTRICITY":0.00012214,"INCLINATION":53.1599,"RA_OF_ASC_NODE":255.2932,"ARG_OF_PERICENTER":77.1132,"MEAN_ANOMALY":283.0005,"EPHEMERIS_TYPE":0,"CLASSIFICATION_TYPE":"U","NORAD_CAT_ID":58980,"ELEMENT_SET_NO":999,"REV_AT_EPOCH":10601,"BSTAR":4.1349051e-5,"MEAN_MOTION_DOT":8.66e-6,"MEAN_MOTION_DDOT":0},{"OBJECT_NAME":"STARLINK-31339","OBJECT_ID":"2024-031S","EPOCH":"2025-12-31T03:03:59.999328","MEAN_MOTION":15.30202498,"ECCENTRICITY":0.00014229,"INCLINATION":53.1594,"RA_OF_ASC_NODE":255.3247,"ARG_OF_PERICENTER":98.9433,"MEAN_ANOMALY":261.1729,"EPHEMERIS_TYPE":0,"CLASSIFICATION_TYPE":"U","NORAD_CAT_ID":58981,"ELEMENT_SET_NO":999,"REV_AT_EPOCH":10601,"BSTAR":4.0745934e-5,"MEAN_MOTION_DOT":8.48e-6,"MEAN_MOTION_DDOT":0},{"OBJECT_NAME":"STARLINK-31384","OBJECT_ID":"2024-031U","EPOCH":"2025-12-30T22:30:57.962304","MEAN_MOTION":15.3019169,"ECCENTRICITY":9.26e-5,"INCLINATION":53.1591,"RA_OF_ASC_NODE":256.2714,"ARG_OF_PERICENTER":96.1772,"MEAN_ANOMALY":263.9334,"EPHEMERIS_TYPE":0,"CLASSIFICATION_TYPE":"U","NORAD_CAT_ID":58983,"ELEMENT_SET_NO":999,"REV_AT_EPOCH":10598,"BSTAR":5.2018e-5,"MEAN_MOTION_DOT":1.182e-5,"MEAN_MOTION_DDOT":0},{"OBJECT_NAME":"STARLINK-31379","OBJECT_ID":"2024-031V","EPOCH":"2025-12-31T00:11:05.917632","MEAN_MOTION":15.30192672,"ECCENTRICITY":0.00011221,"INCLINATION":53.1599,"RA_OF_ASC_NODE":255.9948,"ARG_OF_PERICENTER":88.5538,"MEAN_ANOMALY":271.5592,"EPHEMERIS_TYPE":0,"CLASSIFICATION_TYPE":"U","NORAD_CAT_ID":58984,"ELEMENT_SET_NO":999,"REV_AT_EPOCH":10599,"BSTAR":6.585007e-6,"MEAN_MOTION_DOT":-1.64e-6,"MEAN_MOTION_DDOT":0},{"OBJECT_NAME":"STARLINK-31385","OBJECT_ID":"2024-031W","EPOCH":"2025-12-31T02:43:28.575552","MEAN_MOTION":15.3019933,"ECCENTRICITY":0.00010536,"INCLINATION":53.1593,"RA_OF_ASC_NODE":253.0668,"ARG_OF_PERICENTER":79.5728,"MEAN_ANOMALY":280.5391,"EPHEMERIS_TYPE":0,"CLASSIFICATION_TYPE":"U","NORAD_CAT_ID":58985,"ELEMENT_SET_NO":999,"REV_AT_EPOCH":10604,"BSTAR":8.748357e-5,"MEAN_MOTION_DOT":2.233e-5,"MEAN_MOTION_DDOT":0},{"OBJECT_NAME":"STARLINK-31229","OBJECT_ID":"2024-031X","EPOCH":"2025-12-31T01:54:14.004000","MEAN_MOTION":15.30221396,"ECCENTRICITY":0.00010976,"INCLINATION":53.1599,"RA_OF_ASC_NODE":255.7329,"ARG_OF_PERICENTER":123.7511,"MEAN_ANOMALY":236.3594,"EPHEMERIS_TYPE":0,"CLASSIFICATION_TYPE":"U","NORAD_CAT_ID":58986,"ELEMENT_SET_NO":999,"REV_AT_EPOCH":10600,"BSTAR":4.9684138e-5,"MEAN_MOTION_DOT":1.114e-5,"MEAN_MOTION_DDOT":0}]
