STARLINK-31368          
1 58970U 24031F   25365.02237312 -.00000577  00000+0 -73586-5 0  9994
2 58970  53.1602 255.3924 0001179  92.4617 267.6519 15.30189774106025
STARLINK-31333          
1 58971U 24031G   25365.06930094  .00000263  00000+0  21018-4 0  9998
2 58971  53.1592 242.8919 0001351  89.3095 270.8061 15.30198225106205
STARLINK-31351          
1 58972U 24031H   25365.10563014 -.00002671  00000+0 -78089-4 0  9995
2 58972  53.1589 255.1881 0001480  87.3634 272.7537 15.30201197106029
STARLINK-31365          
1 58973U 24031J   25365.11195457  .00002090  00000+0  82697-4 0  9992
2 58973  53.1593 255.2285 0001445  79.4688 280.6476 15.30190377106034
STARLINK-31361          
1 58974U 24031K   25365.10878315  .00001256  00000+0  54512-4 0  9991
2 58974  53.1589 255.2088 0001089  91.6594 268.4531 15.30199761106039
STARLINK-31369          
1 58975U 24031L   25365.11512195  .00001469  00000+0  61725-4 0  9994
2 58975  53.1589 255.2472 0001359  75.2059 284.9092 15.30189029106010
STARLINK-31324          
1 58976U 24031M   25364.98765337 -.00001230  00000+0 -29402-4 0  9991
2 58976  53.1601 255.8738 0001025  82.3208 277.7910 15.30203805105996
STARLINK-31358          
1 58977U 24031N   25365.08556901  .00001252  00000+0  54391-4 0  9996
2 58977  53.1604 255.0549 0001272  94.1289 265.9857 15.30194577106014
STARLINK-31355          
1 58978U 24031P   25364.86019345  .00004790  00000+0  17372-3 0  9995
2 58978  53.1584 256.5016 0001323  84.4153 275.6998 15.30205669105979
STARLINK-31380          
1 58979U 24031Q   25365.12461667  .00003698  00000+0  13694-3 0  9993
2 58979  53.1578 255.3047 0001028  86.6541 273.4577 15.30196232106011
STARLINK-31353          
1 58980U 24031R   25365.12250577  .00000866  00000+0  41349-4 0  9994
2 58980  53.1599 255.2932 0001221  77.1132 283.0005 15.30197108106010
STARLINK-31339          
1 58981U 24031S   25365.12777777  .00000848  00000+0  40746-4 0  9991
2 58981  53.1594 255.3247 0001422  98.9433 261.1729 15.30202498106013
STARLINK-31384          
1 58983U 24031U   25364.93817086  .00001182  00000+0  52018-4 0  9996
2 58983  53.1591 256.2714 0000926  96.1772 263.9334 15.30191690105983
STARLINK-31379          
1 58984U 24031V   25365.00770738 -.00000164  00000+0  65850-5 0  9997
2 58984  53.1599 255.9948 0001122  88.5538 271.5592 15.30192672105994
STARLINK-31385          
1 58985U 24031W   25365.11352518  .00002233  00000+0  87484-4 0  9996
2 58985  53.1593 253.0668 0001053  79.5728 280.5391 15.30199330106043
STARLINK-31229          
1 58986U 24031X   25365.07932875  .00001114  00000+0  49684-4 0  9999
2 58986  53.1599 255.7329 0001097 123.7511 236.3594 15.30221396106001
